{
    "links": {
        "self": "http://www.neowsapp.com/rest/v1/neo/3740042?api_key=iIulBulltgU6a56xZRHN4H3l9WmuAYTsLGpBGhQ2"
    },
    "id": "3740042",
    "neo_reference_id": "3740042",
    "name": "(2016 AH165)",
    "designation": "2016 AH165",
    "nasa_jpl_url": "http://ssd.jpl.nasa.gov/sbdb.cgi?sstr=3740042",
    "absolute_magnitude_h": 21.9,
    "estimated_diameter": {
        "kilometers": {
            "estimated_diameter_min": 0.1108038821,
            "estimated_diameter_max": 0.2477650126
        },
        "meters": {
            "estimated_diameter_min": 110.8038821264,
            "estimated_diameter_max": 247.7650126055
        },
        "miles": {
            "estimated_diameter_min": 0.068850319,
            "estimated_diameter_max": 0.1539539936
        },
        "feet": {
            "estimated_diameter_min": 363.5298086356,
            "estimated_diameter_max": 812.8773639568
        }
    },
    "is_potentially_hazardous_asteroid": false,
    "close_approach_data": [
        {
            "close_approach_date": "1999-12-31",
            "close_approach_date_full": "1999-Dec-31 10:30",
            "epoch_date_close_approach": 946636200000,
            "relative_velocity": {
                "kilometers_per_second": "7.5846511869",
                "kilometers_per_hour": "27304.7442729143",
                "miles_per_hour": "16966.1062400228"
            },
            "miss_distance": {
                "astronomical": "0.2077134173",
                "lunar": "80.8005193297",
                "kilometers": "31073484.798501151",
                "miles": "19308168.1221358438"
            },
            "orbiting_body": "Earth"
        },
        {
            "close_approach_date": "2007-12-30",
            "close_approach_date_full": "2007-Dec-30 18:22",
            "epoch_date_close_approach": 1199038920000,
            "relative_velocity": {
                "kilometers_per_second": "7.7370974881",
                "kilometers_per_hour": "27853.5509572034",
                "miles_per_hour": "17307.1133711578"
            },
            "miss_distance": {
                "astronomical": "0.2076089699",
                "lunar": "80.7598892911",
                "kilometers": "31057859.689934113",
                "miles": "19298459.1298842394"
            },
            "orbiting_body": "Earth"
        },
        {
            "close_approach_date": "2015-12-29",
            "close_approach_date_full": "2015-Dec-29 21:53",
            "epoch_date_close_approach": 1451425980000,
            "relative_velocity": {
                "kilometers_per_second": "7.9203594806",
                "kilometers_per_hour": "28513.2941300375",
                "miles_per_hour": "17717.052122078"
            },
            "miss_distance": {
                "astronomical": "0.2194216564",
                "lunar": "85.3550243396",
                "kilometers": "32825012.429311868",
                "miles": "20396516.9245170584"
            },
            "orbiting_body": "Earth"
        },
        {
            "close_approach_date": "2023-12-29",
            "close_approach_date_full": "2023-Dec-29 00:12",
            "epoch_date_close_approach": 1703808720000,
            "relative_velocity": {
                "kilometers_per_second": "8.254027834",
                "kilometers_per_hour": "29714.5002022303",
                "miles_per_hour": "18463.4348617692"
            },
            "miss_distance": {
                "astronomical": "0.2421210867",
                "lunar": "94.1851027263",
                "kilometers": "36220798.852405329",
                "miles": "22506560.7637943802"
            },
            "orbiting_body": "Earth"
        },
        {
            "close_approach_date": "2031-12-28",
            "close_approach_date_full": "2031-Dec-28 03:14",
            "epoch_date_close_approach": 1956194040000,
            "relative_velocity": {
                "kilometers_per_second": "8.7175353408",
                "kilometers_per_hour": "31383.1272270058",
                "miles_per_hour": "19500.2548039137"
            },
            "miss_distance": {
                "astronomical": "0.2758806476",
                "lunar": "107.3175719164",
                "kilometers": "41271157.255180612",
                "miles": "25644707.9574599656"
            },
            "orbiting_body": "Earth"
        }
    ],
    "orbital_data": {
        "orbit_id": "6",
        "orbit_determination_date": "2017-04-06 08:29:10",
        "first_observation_date": "2016-01-13",
        "last_observation_date": "2016-02-05",
        "data_arc_in_days": 23,
        "observations_used": 32,
        "orbit_uncertainty": "7",
        "minimum_orbit_intersection": ".208756",
        "jupiter_tisserand_invariant": "3.794",
        "epoch_osculation": "2459000.5",
        "eccentricity": ".3859341927909014",
        "semi_major_axis": "1.924944055946908",
        "inclination": "13.53886038987472",
        "ascending_node_longitude": "289.2641759068776",
        "orbital_period": "975.4962298802374",
        "perihelion_distance": "1.182042325547394",
        "perihelion_argument": "159.8467632254807",
        "aphelion_distance": "2.667845786346422",
        "perihelion_time": "2459331.715937338810",
        "mean_anomaly": "237.7670955667245",
        "mean_motion": ".3690429434506349",
        "equinox": "J2000",
        "orbit_class": {
            "orbit_class_type": "AMO",
            "orbit_class_description": "Near-Earth asteroid orbits similar to that of 1221 Amor",
            "orbit_class_range": "1.017 AU < q (perihelion) < 1.3 AU"
        }
    },
    "is_sentry_object": false
}